[{"OBJECT_NAME":"STARLINK-34761","OBJECT_ID":"2025-158Y","EPOCH":"2026-03-09T15:14:26.775168","MEAN_MOTION":15.05648073,"ECCENTRICITY":0.0001783,"INCLINATION":97.6035,"RA_OF_ASC_NODE":293.9705,"ARG_OF_PERICENTER":90.1683,"MEAN_ANOMALY":269.9748,"EPHEMERIS_TYPE":0,"CLASSIFICATION_TYPE":"U","NORAD_CAT_ID":64954,"ELEMENT_SET_NO":999,"REV_AT_EPOCH":3534,"BSTAR":0.0003582,"MEAN_MOTION_DOT":5.111e-5,"MEAN_MOTION_DDOT":0},{"OBJECT_NAME":"RAPIDEYE 3","OBJECT_ID":"2008-040D","EPOCH":"2026-03-09T19:34:21.496512","MEAN_MOTION":15.06489596,"ECCENTRICITY":0.00114187,"INCLINATION":97.3959,"RA_OF_ASC_NODE":102.9968,"ARG_OF_PERICENTER":27.1842,"MEAN_ANOMALY":332.9981,"EPHEMERIS_TYPE":0,"CLASSIFICATION_TYPE":"U","NORAD_CAT_ID":33315,"ELEMENT_SET_NO":999,"REV_AT_EPOCH":95131,"BSTAR":0.00019030529,"MEAN_MOTION_DOT":2.754e-5,"MEAN_MOTION_DDOT":0}]
